[
  {
    "OBJECT_NAME": "STARLINK-4656",
    "OBJECT_ID": "2022-107AX",
    "EPOCH": "2023-10-31T21:46:11.122752",
    "MEAN_MOTION": 15.08850814,
    "ECCENTRICITY": 0.000147,
    "INCLINATION": 53.2153,
    "RA_OF_ASC_NODE": 163.9639,
    "ARG_OF_PERICENTER": 84.8176,
    "MEAN_ANOMALY": 275.2984,
    "EPHEMERIS_TYPE": 0,
    "CLASSIFICATION_TYPE": "U",
    "NORAD_CAT_ID": 53745,
    "ELEMENT_SET_NO": 999,
    "REV_AT_EPOCH": 6401,
    "BSTAR": 0.00042624,
    "MEAN_MOTION_DOT": 6.504e-5,
    "MEAN_MOTION_DDOT": 0
  },
  {
    "OBJECT_NAME": "STARLINK-4589",
    "OBJECT_ID": "2022-107AY",
    "EPOCH": "2023-10-31T21:35:34.601856",
    "MEAN_MOTION": 15.08843408,
    "ECCENTRICITY": 0.0001108,
    "INCLINATION": 53.2156,
    "RA_OF_ASC_NODE": 163.9163,
    "ARG_OF_PERICENTER": 107.1058,
    "MEAN_ANOMALY": 253.0055,
    "EPHEMERIS_TYPE": 0,
    "CLASSIFICATION_TYPE": "U",
    "NORAD_CAT_ID": 53746,
    "ELEMENT_SET_NO": 999,
    "REV_AT_EPOCH": 6401,
    "BSTAR": 0.00054667,
    "MEAN_MOTION_DOT": 8.424e-5,
    "MEAN_MOTION_DDOT": 0
  },
  {
    "OBJECT_NAME": "STARLINK-4669",
    "OBJECT_ID": "2022-107BA",
    "EPOCH": "2023-10-31T21:51:29.479104",
    "MEAN_MOTION": 15.088497,
    "ECCENTRICITY": 0.00015,
    "INCLINATION": 53.216,
    "RA_OF_ASC_NODE": 163.9863,
    "ARG_OF_PERICENTER": 87.9008,
    "MEAN_ANOMALY": 272.2156,
    "EPHEMERIS_TYPE": 0,
    "CLASSIFICATION_TYPE": "U",
    "NORAD_CAT_ID": 53748,
    "ELEMENT_SET_NO": 999,
    "REV_AT_EPOCH": 6401,
    "BSTAR": 0.0002449,
    "MEAN_MOTION_DOT": 3.613e-5,
    "MEAN_MOTION_DDOT": 0
  },
  {
    "OBJECT_NAME": "STARLINK-4680",
    "OBJECT_ID": "2022-107BB",
    "EPOCH": "2023-10-31T20:21:24.661440",
    "MEAN_MOTION": 15.08839688,
    "ECCENTRICITY": 0.0001503,
    "INCLINATION": 53.2167,
    "RA_OF_ASC_NODE": 164.2715,
    "ARG_OF_PERICENTER": 100.3774,
    "MEAN_ANOMALY": 259.7388,
    "EPHEMERIS_TYPE": 0,
    "CLASSIFICATION_TYPE": "U",
    "NORAD_CAT_ID": 53749,
    "ELEMENT_SET_NO": 999,
    "REV_AT_EPOCH": 6400,
    "BSTAR": 0.00032924,
    "MEAN_MOTION_DOT": 4.956e-5,
    "MEAN_MOTION_DDOT": 0
  },
  {
    "OBJECT_NAME": "STARLINK-4612",
    "OBJECT_ID": "2022-107BC",
    "EPOCH": "2023-10-31T20:26:43.103328",
    "MEAN_MOTION": 15.0884743,
    "ECCENTRICITY": 0.0001212,
    "INCLINATION": 53.2153,
    "RA_OF_ASC_NODE": 164.3306,
    "ARG_OF_PERICENTER": 80.4577,
    "MEAN_ANOMALY": 279.6552,
    "EPHEMERIS_TYPE": 0,
    "CLASSIFICATION_TYPE": "U",
    "NORAD_CAT_ID": 53750,
    "ELEMENT_SET_NO": 999,
    "REV_AT_EPOCH": 6400,
    "BSTAR": 0.00049387,
    "MEAN_MOTION_DOT": 7.582e-5,
    "MEAN_MOTION_DDOT": 0
  },
  {
    "OBJECT_NAME": "SHERPA-LTC2",
    "OBJECT_ID": "2022-107BG",
    "EPOCH": "2023-10-31T14:36:36.027648",
    "MEAN_MOTION": 14.52652667,
    "ECCENTRICITY": 0.0459896,
    "INCLINATION": 53.2387,
    "RA_OF_ASC_NODE": 274.3061,
    "ARG_OF_PERICENTER": 94.7515,
    "MEAN_ANOMALY": 270.6111,
    "EPHEMERIS_TYPE": 0,
    "CLASSIFICATION_TYPE": "U",
    "NORAD_CAT_ID": 53754,
    "ELEMENT_SET_NO": 999,
    "REV_AT_EPOCH": 6219,
    "BSTAR": 0.00033695,
    "MEAN_MOTION_DOT": 5.585e-5,
    "MEAN_MOTION_DDOT": 0
  },
  {
    "OBJECT_NAME": "STARLINK-4718",
    "OBJECT_ID": "2022-111A",
    "EPOCH": "2023-10-31T20:55:48.798048",
    "MEAN_MOTION": 15.08847314,
    "ECCENTRICITY": 0.0001261,
    "INCLINATION": 53.2152,
    "RA_OF_ASC_NODE": 183.913,
    "ARG_OF_PERICENTER": 93.9828,
    "MEAN_ANOMALY": 266.1308,
    "EPHEMERIS_TYPE": 0,
    "CLASSIFICATION_TYPE": "U",
    "NORAD_CAT_ID": 53773,
    "ELEMENT_SET_NO": 999,
    "REV_AT_EPOCH": 6294,
    "BSTAR": 0.00072492,
    "MEAN_MOTION_DOT": 0.0001127,
    "MEAN_MOTION_DDOT": 0
  },
  {
    "OBJECT_NAME": "STARLINK-4719",
    "OBJECT_ID": "2022-111B",
    "EPOCH": "2023-10-31T20:50:30.328512",
    "MEAN_MOTION": 15.08841584,
    "ECCENTRICITY": 0.0001615,
    "INCLINATION": 53.2154,
    "RA_OF_ASC_NODE": 183.8923,
    "ARG_OF_PERICENTER": 91.9822,
    "MEAN_ANOMALY": 268.1355,
    "EPHEMERIS_TYPE": 0,
    "CLASSIFICATION_TYPE": "U",
    "NORAD_CAT_ID": 53774,
    "ELEMENT_SET_NO": 999,
    "REV_AT_EPOCH": 6294,
    "BSTAR": 0.00018907,
    "MEAN_MOTION_DOT": 2.722e-5,
    "MEAN_MOTION_DDOT": 0
  },
  {
    "OBJECT_NAME": "STARLINK-4722",
    "OBJECT_ID": "2022-111C",
    "EPOCH": "2023-10-31T21:34:16.999104",
    "MEAN_MOTION": 15.08850783,
    "ECCENTRICITY": 0.0001392,
    "INCLINATION": 53.2147,
    "RA_OF_ASC_NODE": 174.1087,
    "ARG_OF_PERICENTER": 86.2349,
    "MEAN_ANOMALY": 273.8802,
    "EPHEMERIS_TYPE": 0,
    "CLASSIFICATION_TYPE": "U",
    "NORAD_CAT_ID": 53775,
    "ELEMENT_SET_NO": 999,
    "REV_AT_EPOCH": 6308,
    "BSTAR": 0.00061136,
    "MEAN_MOTION_DOT": 9.458e-5,
    "MEAN_MOTION_DDOT": 0
  },
  {
    "OBJECT_NAME": "STARLINK-4708",
    "OBJECT_ID": "2022-111D",
    "EPOCH": "2023-10-31T21:27:02.302560",
    "MEAN_MOTION": 15.08838203,
    "ECCENTRICITY": 0.0001583,
    "INCLINATION": 53.216,
    "RA_OF_ASC_NODE": 179.0564,
    "ARG_OF_PERICENTER": 108.2273,
    "MEAN_ANOMALY": 251.8891,
    "EPHEMERIS_TYPE": 0,
    "CLASSIFICATION_TYPE": "U",
    "NORAD_CAT_ID": 53776,
    "ELEMENT_SET_NO": 999,
    "REV_AT_EPOCH": 6301,
    "BSTAR": -5.0101e-5,
    "MEAN_MOTION_DOT": -1.085e-5,
    "MEAN_MOTION_DDOT": 0
  },
  {
    "OBJECT_NAME": "STARLINK-4664",
    "OBJECT_ID": "2022-111E",
    "EPOCH": "2023-10-31T21:23:40.186176",
    "MEAN_MOTION": 15.08848116,
    "ECCENTRICITY": 0.0001651,
    "INCLINATION": 53.2159,
    "RA_OF_ASC_NODE": 174.0623,
    "ARG_OF_PERICENTER": 89.255,
    "MEAN_ANOMALY": 270.8632,
    "EPHEMERIS_TYPE": 0,
    "CLASSIFICATION_TYPE": "U",
    "NORAD_CAT_ID": 53777,
    "ELEMENT_SET_NO": 999,
    "REV_AT_EPOCH": 6308,
    "BSTAR": 0.0002472,
    "MEAN_MOTION_DOT": 3.649e-5,
    "MEAN_MOTION_DDOT": 0
  },
  {
    "OBJECT_NAME": "STARLINK-4709",
    "OBJECT_ID": "2022-111F",
    "EPOCH": "2023-10-31T20:27:17.632224",
    "MEAN_MOTION": 15.08844673,
    "ECCENTRICITY": 0.0001365,
    "INCLINATION": 53.2159,
    "RA_OF_ASC_NODE": 178.8087,
    "ARG_OF_PERICENTER": 83.3109,
    "MEAN_ANOMALY": 276.8038,
    "EPHEMERIS_TYPE": 0,
    "CLASSIFICATION_TYPE": "U",
    "NORAD_CAT_ID": 53778,
    "ELEMENT_SET_NO": 999,
    "REV_AT_EPOCH": 6301,
    "BSTAR": 0.00023103,
    "MEAN_MOTION_DOT": 3.391e-5,
    "MEAN_MOTION_DDOT": 0
  },
  {
    "OBJECT_NAME": "STARLINK-4706",
    "OBJECT_ID": "2022-111G",
    "EPOCH": "2023-10-31T14:56:49.621056",
    "MEAN_MOTION": 15.08843486,
    "ECCENTRICITY": 0.0001622,
    "INCLINATION": 53.2157,
    "RA_OF_ASC_NODE": 175.2297,
    "ARG_OF_PERICENTER": 94.5646,
    "MEAN_ANOMALY": 265.5531,
    "EPHEMERIS_TYPE": 0,
    "CLASSIFICATION_TYPE": "U",
    "NORAD_CAT_ID": 53779,
    "ELEMENT_SET_NO": 999,
    "REV_AT_EPOCH": 6385,
    "BSTAR": 0.00075138,
    "MEAN_MOTION_DOT": 0.00011692,
    "MEAN_MOTION_DDOT": 0
  },
  {
    "OBJECT_NAME": "STARLINK-4678",
    "OBJECT_ID": "2022-111H",
    "EPOCH": "2023-10-31T08:45:53.741376",
    "MEAN_MOTION": 15.08843742,
    "ECCENTRICITY": 0.0001608,
    "INCLINATION": 53.2179,
    "RA_OF_ASC_NODE": 176.4632,
    "ARG_OF_PERICENTER": 89.4872,
    "MEAN_ANOMALY": 270.6304,
    "EPHEMERIS_TYPE": 0,
    "CLASSIFICATION_TYPE": "U",
    "NORAD_CAT_ID": 53780,
    "ELEMENT_SET_NO": 999,
    "REV_AT_EPOCH": 6381,
    "BSTAR": -1.4729e-5,
    "MEAN_MOTION_DOT": -5.22e-6,
    "MEAN_MOTION_DDOT": 0
  }
]
