STARLINK-4656           
1 53745U 22107AX  23304.90707318  .00006504  00000+0  42624-3 0  9998
2 53745  53.2153 163.9639 0001470  84.8176 275.2984 15.08850814 64016
STARLINK-4589           
1 53746U 22107AY  23304.89970604  .00008424  00000+0  54667-3 0  9990
2 53746  53.2156 163.9163 0001108 107.1058 253.0055 15.08843408 64012
STARLINK-4669           
1 53748U 22107BA  23304.91075786  .00003613  00000+0  24490-3 0  9998
2 53748  53.2160 163.9863 0001500  87.9008 272.2156 15.08849700 64018
STARLINK-4680           
1 53749U 22107BB  23304.84820210  .00004956  00000+0  32924-3 0  9993
2 53749  53.2167 164.2715 0001503 100.3774 259.7388 15.08839688 64009
STARLINK-4612           
1 53750U 22107BC  23304.85188777  .00007582  00000+0  49387-3 0  9990
2 53750  53.2153 164.3306 0001212  80.4577 279.6552 15.08847430 64007
SHERPA-LTC2             
1 53754U 22107BG  23304.60875032  .00005585  00000+0  33695-3 0  9990
2 53754  53.2387 274.3061 0459896  94.7515 270.6111 14.52652667 62199
STARLINK-4718           
1 53773U 22111A   23304.87209257  .00011270  00000+0  72492-3 0  9991
2 53773  53.2152 183.9130 0001261  93.9828 266.1308 15.08847314 62947
STARLINK-4719           
1 53774U 22111B   23304.86840658  .00002722  00000+0  18907-3 0  9990
2 53774  53.2154 183.8923 0001615  91.9822 268.1355 15.08841584 62941
STARLINK-4722           
1 53775U 22111C   23304.89880786  .00009458  00000+0  61136-3 0  9995
2 53775  53.2147 174.1087 0001392  86.2349 273.8802 15.08850783 63088
STARLINK-4708           
1 53776U 22111D   23304.89377665 -.00001085  00000+0 -50101-4 0  9994
2 53776  53.2160 179.0564 0001583 108.2273 251.8891 15.08838203 63011
STARLINK-4664           
1 53777U 22111E   23304.89143734  .00003649  00000+0  24720-3 0  9996
2 53777  53.2159 174.0623 0001651  89.2550 270.8632 15.08848116 63088
STARLINK-4709           
1 53778U 22111F   23304.85228741  .00003391  00000+0  23103-3 0  9993
2 53778  53.2159 178.8087 0001365  83.3109 276.8038 15.08844673 63015
STARLINK-4706           
1 53779U 22111G   23304.62279654  .00011692  00000+0  75138-3 0  9996
2 53779  53.2157 175.2297 0001622  94.5646 265.5531 15.08843486 63850
STARLINK-4678           
1 53780U 22111H   23304.36520534 -.00000522  00000+0 -14729-4 0  9997
2 53780  53.2179 176.4632 0001608  89.4872 270.6304 15.08843742 63816
